{
  "type": "FeatureCollection",
  "features": [
    {
      "type": "Feature",
      "properties": {
        "norad_id": 55973,
        "name": "TIANMU-1 03",
        "group": "weather",
        "lat": 55.52561256321182,
        "lon": -28.56799151080484,
        "alt_km": 436.87220431398055,
        "timestamp": "2025-12-03T22:42:32.302598+00:00",
        "meta_object_name": "TIANMU-1 03",
        "meta_object_id": "2023-039A",
        "meta_epoch": "2025-12-03T12:49:14.373696",
        "meta_mean_motion": 15.4050068,
        "meta_eccentricity": 0.0004554,
        "meta_inclination": 97.5101,
        "meta_ra_of_asc_node": 139.9314,
        "meta_arg_of_pericenter": 87.669,
        "meta_mean_anomaly": 272.5077,
        "meta_ephemeris_type": 0,
        "meta_classification_type": "U",
        "meta_norad_cat_id": 55973,
        "meta_element_set_no": 999,
        "meta_rev_at_epoch": 15064,
        "meta_bstar": 0.00050193,
        "meta_mean_motion_dot": 0.00020306,
        "meta_mean_motion_ddot": 0,
        "tle_line1": "1 55973U 23039A   25337.53419414  .00020306  00000+0  50193-3 0  9998",
        "tle_line2": "2 55973  97.5101 139.9314 0004554  87.6690 272.5077 15.40500680150643"
      },
      "geometry": {
        "type": "Point",
        "coordinates": [
          -28.56799151080484,
          55.52561256321182
        ]
      }
    },
    {
      "type": "Feature",
      "properties": {
        "norad_id": 55974,
        "name": "TIANMU-1 04",
        "group": "weather",
        "lat": -46.67372058012238,
        "lon": -48.4834589473566,
        "alt_km": 453.37731555719256,
        "timestamp": "2025-12-03T22:42:32.302607+00:00",
        "meta_object_name": "TIANMU-1 04",
        "meta_object_id": "2023-039B",
        "meta_epoch": "2025-12-03T12:22:30.093312",
        "meta_mean_motion": 15.40829878,
        "meta_eccentricity": 0.0005227,
        "meta_inclination": 97.5032,
        "meta_ra_of_asc_node": 139.1072,
        "meta_arg_of_pericenter": 83.8153,
        "meta_mean_anomaly": 276.3689,
        "meta_ephemeris_type": 0,
        "meta_classification_type": "U",
        "meta_norad_cat_id": 55974,
        "meta_element_set_no": 999,
        "meta_rev_at_epoch": 15064,
        "meta_bstar": 0.00050177,
        "meta_mean_motion_dot": 0.00020525,
        "meta_mean_motion_ddot": 0,
        "tle_line1": "1 55974U 23039B   25337.51562608  .00020525  00000+0  50177-3 0  9996",
        "tle_line2": "2 55974  97.5032 139.1072 0005227  83.8153 276.3689 15.40829878150644"
      },
      "geometry": {
        "type": "Point",
        "coordinates": [
          -48.4834589473566,
          -46.67372058012238
        ]
      }
    },
    {
      "type": "Feature",
      "properties": {
        "norad_id": 55975,
        "name": "TIANMU-1 05",
        "group": "weather",
        "lat": -82.43939454583375,
        "lon": -136.41745825600287,
        "alt_km": 454.96110151123685,
        "timestamp": "2025-12-03T22:42:32.302618+00:00",
        "meta_object_name": "TIANMU-1 05",
        "meta_object_id": "2023-039C",
        "meta_epoch": "2025-12-03T12:10:58.665216",
        "meta_mean_motion": 15.40457925,
        "meta_eccentricity": 0.0004323,
        "meta_inclination": 97.5079,
        "meta_ra_of_asc_node": 139.5909,
        "meta_arg_of_pericenter": 104.3289,
        "meta_mean_anomaly": 255.8437,
        "meta_ephemeris_type": 0,
        "meta_classification_type": "U",
        "meta_norad_cat_id": 55975,
        "meta_element_set_no": 999,
        "meta_rev_at_epoch": 15062,
        "meta_bstar": 0.00049259,
        "meta_mean_motion_dot": 0.00019897,
        "meta_mean_motion_ddot": 0,
        "tle_line1": "1 55975U 23039C   25337.50762344  .00019897  00000+0  49259-3 0  9994",
        "tle_line2": "2 55975  97.5079 139.5909 0004323 104.3289 255.8437 15.40457925150625"
      },
      "geometry": {
        "type": "Point",
        "coordinates": [
          -136.41745825600287,
          -82.43939454583375
        ]
      }
    },
    {
      "type": "Feature",
      "properties": {
        "norad_id": 55976,
        "name": "TIANMU-1 06",
        "group": "weather",
        "lat": -33.18887262015308,
        "lon": -44.45064033971816,
        "alt_km": 451.04138584549673,
        "timestamp": "2025-12-03T22:42:32.302627+00:00",
        "meta_object_name": "TIANMU-1 06",
        "meta_object_id": "2023-039D",
        "meta_epoch": "2025-12-03T12:26:05.096256",
        "meta_mean_motion": 15.40882734,
        "meta_eccentricity": 0.0004664,
        "meta_inclination": 97.509,
        "meta_ra_of_asc_node": 140.0592,
        "meta_arg_of_pericenter": 99.9439,
        "meta_mean_anomaly": 260.2333,
        "meta_ephemeris_type": 0,
        "meta_classification_type": "U",
        "meta_norad_cat_id": 55976,
        "meta_element_set_no": 999,
        "meta_rev_at_epoch": 15064,
        "meta_bstar": 0.00049587,
        "meta_mean_motion_dot": 0.00020315,
        "meta_mean_motion_ddot": 0,
        "tle_line1": "1 55976U 23039D   25337.51811454  .00020315  00000+0  49587-3 0  9994",
        "tle_line2": "2 55976  97.5090 140.0592 0004664  99.9439 260.2333 15.40882734150645"
      },
      "geometry": {
        "type": "Point",
        "coordinates": [
          -44.45064033971816,
          -33.18887262015308
        ]
      }
    },
    {
      "type": "Feature",
      "properties": {
        "norad_id": 56232,
        "name": "FENGYUN 3G",
        "group": "weather",
        "lat": -14.582457024120401,
        "lon": 105.42480277416449,
        "alt_km": 411.08522044837173,
        "timestamp": "2025-12-03T22:42:32.302636+00:00",
        "meta_object_name": "FENGYUN 3G",
        "meta_object_id": "2023-055A",
        "meta_epoch": "2025-12-03T09:30:02.813760",
        "meta_mean_motion": 15.52776175,
        "meta_eccentricity": 0.0009241,
        "meta_inclination": 49.9946,
        "meta_ra_of_asc_node": 275.6421,
        "meta_arg_of_pericenter": 103.5042,
        "meta_mean_anomaly": 256.6955,
        "meta_ephemeris_type": 0,
        "meta_classification_type": "U",
        "meta_norad_cat_id": 56232,
        "meta_element_set_no": 999,
        "meta_rev_at_epoch": 14957,
        "meta_bstar": 0.00061458,
        "meta_mean_motion_dot": 0.00038571,
        "meta_mean_motion_ddot": 0,
        "tle_line1": "1 56232U 23055A   25337.39586590  .00038571  00000+0  61458-3 0  9998",
        "tle_line2": "2 56232  49.9946 275.6421 0009241 103.5042 256.6955 15.52776175149579"
      },
      "geometry": {
        "type": "Point",
        "coordinates": [
          105.42480277416449,
          -14.582457024120401
        ]
      }
    },
    {
      "type": "Feature",
      "properties": {
        "norad_id": 57166,
        "name": "METEOR-M2 3",
        "group": "weather",
        "lat": -12.83235819447537,
        "lon": -150.34594710580907,
        "alt_km": 819.1919553583375,
        "timestamp": "2025-12-03T22:42:32.302648+00:00",
        "meta_object_name": "METEOR-M2 3",
        "meta_object_id": "2023-091A",
        "meta_epoch": "2025-12-03T11:41:18.204864",
        "meta_mean_motion": 14.24024259,
        "meta_eccentricity": 0.0004399,
        "meta_inclination": 98.6393,
        "meta_ra_of_asc_node": 31.1875,
        "meta_arg_of_pericenter": 33.586,
        "meta_mean_anomaly": 326.5597,
        "meta_ephemeris_type": 0,
        "meta_classification_type": "U",
        "meta_norad_cat_id": 57166,
        "meta_element_set_no": 999,
        "meta_rev_at_epoch": 12666,
        "meta_bstar": 4.1764e-05,
        "meta_mean_motion_dot": 5.2e-07,
        "meta_mean_motion_ddot": 0,
        "tle_line1": "1 57166U 23091A   25337.48701626  .00000052  00000+0  41764-4 0  9996",
        "tle_line2": "2 57166  98.6393  31.1875 0004399  33.5860 326.5597 14.24024259126661"
      },
      "geometry": {
        "type": "Point",
        "coordinates": [
          -150.34594710580907,
          -12.83235819447537
        ]
      }
    },
    {
      "type": "Feature",
      "properties": {
        "norad_id": 57399,
        "name": "TIANMU-1 07",
        "group": "weather",
        "lat": -25.095494030875336,
        "lon": 31.428395440698235,
        "alt_km": 490.284074926687,
        "timestamp": "2025-12-03T22:42:32.302658+00:00",
        "meta_object_name": "TIANMU-1 07",
        "meta_object_id": "2023-101A",
        "meta_epoch": "2025-12-03T11:49:00.195168",
        "meta_mean_motion": 15.2785611,
        "meta_eccentricity": 0.000559,
        "meta_inclination": 97.2895,
        "meta_ra_of_asc_node": 27.5476,
        "meta_arg_of_pericenter": 104.9573,
        "meta_mean_anomaly": 255.2286,
        "meta_ephemeris_type": 0,
        "meta_classification_type": "U",
        "meta_norad_cat_id": 57399,
        "meta_element_set_no": 999,
        "meta_rev_at_epoch": 13174,
        "meta_bstar": 0.00040001,
        "meta_mean_motion_dot": 0.00010816,
        "meta_mean_motion_ddot": 0,
        "tle_line1": "1 57399U 23101A   25337.49236337  .00010816  00000+0  40001-3 0  9990",
        "tle_line2": "2 57399  97.2895  27.5476 0005590 104.9573 255.2286 15.27856110131746"
      },
      "geometry": {
        "type": "Point",
        "coordinates": [
          31.428395440698235,
          -25.095494030875336
        ]
      }
    }
  ]
}